OBJECT_NAME,OBJECT_ID,EPOCH,MEAN_MOTION,ECCENTRICITY,INCLINATION,RA_OF_ASC_NODE,ARG_OF_PERICENTER,MEAN_ANOMALY,EPHEMERIS_TYPE,CLASSIFICATION_TYPE,NORAD_CAT_ID,ELEMENT_SET_NO,REV_AT_EPOCH,BSTAR,MEAN_MOTION_DOT,MEAN_MOTION_DDOT
INTELSAT 902 (IS-902),2001-039A,2026-06-18T12:41:02.392224,1.00271543,.0004307,6.1204,71.7676,12.4923,322.6674,0,U,26900,999,9070,0,-.292E-5,0
INTELSAT 904 (IS-904),2002-007A,2026-06-18T11:03:47.464128,1.00270286,.000653,6.9241,69.1697,5.9759,326.0004,0,U,27380,999,5177,0,-.235E-5,0
DIRECTV 5 (TEMPO 1),2002-023A,2026-06-18T20:57:13.210848,1.00271740,.00031613,4.8830,75.2900,14.0447,21.9616,0,U,27426,999,8814,0,-.65E-6,0
INTELSAT 905 (IS-905),2002-027A,2026-06-18T19:06:49.876704,1.00272116,.00038827,6.7585,69.7818,22.1545,324.5816,0,U,27438,999,5137,0,.85E-6,0
GALAXY 3C (G-3C),2002-030A,2026-06-18T21:01:35.292288,1.00271373,.00016117,3.7373,77.9541,29.1300,20.5708,0,U,27445,999,4651,0,-.16E-5,0
INTELSAT 906 (IS-906),2002-041A,2026-06-18T04:57:21.563712,1.00275136,.0004397,5.8051,72.9092,2.8775,329.1640,0,U,27513,999,8703,0,.4E-7,0
GALAXY 13 (HORIZONS-1),2003-044A,2026-06-18T15:37:56.150112,1.00271682,.00022272,1.4228,83.8471,355.5372,271.9736,0,U,27954,999,4658,0,.126E-5,0
INTELSAT 10-02,2004-022A,2026-06-18T21:28:23.176416,1.00271761,.00001894,0.0178,304.9806,226.3646,56.8712,0,U,28358,999,8057,0,-.17E-6,0
DIRECTV 8,2005-019A,2026-06-18T20:54:43.451136,1.00269928,.00029937,0.0191,13.0519,80.4662,8.2209,0,U,28659,999,7709,0,0,0
GALAXY 28 (G-28),2005-022A,2026-06-18T19:38:01.883904,1.00271033,.00028514,3.3024,78.9149,8.2458,87.3200,0,U,28702,999,5199,0,-.208E-5,0
GALAXY 16 (G-16),2006-023A,2026-06-18T21:00:27.900288,1.00271481,.00025171,0.0117,97.4765,346.7012,39.0426,0,U,29236,999,7299,0,-.133E-5,0
DIRECTV 9S,2006-043A,2026-06-18T20:59:35.484000,1.00270996,.00049799,2.4261,80.8837,13.5557,26.3672,0,U,29494,999,5140,0,-.12E-5,0
GALAXY 17 (G-17),2007-016B,2026-06-18T21:04:27.516864,1.00271625,.00046746,2.9774,79.8801,18.6769,39.6550,0,U,31307,999,6982,0,-.213E-5,0
INTELSAT 11 (IS-11),2007-044B,2026-06-18T19:43:02.467776,0.99050129,.000244,3.5706,78.6500,88.5869,154.2628,0,U,32253,999,6846,0,-.21E-5,0
HORIZONS-2,2007-063B,2026-06-18T21:07:34.718016,1.00272982,.00038649,2.6073,80.6045,358.3688,71.2173,0,U,32388,999,6783,0,-.261E-5,0
DIRECTV 11,2008-013A,2026-06-18T15:46:13.892736,1.00269953,.00001743,0.0065,285.2993,94.7881,24.1838,0,U,32729,999,4560,0,-.132E-5,0
GALAXY 18 (G-18),2008-024A,2026-06-18T15:45:32.920128,1.00270297,.00027862,0.0159,58.5793,26.7804,294.9187,0,U,32951,999,4586,0,.19E-6,0
INTELSAT 25 (IS-25),2008-034A,2026-06-18T22:01:07.290336,0.99034030,.00034684,2.7154,80.3525,60.5778,210.4470,0,U,33153,999,6570,0,-.179E-5,0
GALAXY 19 (G-19),2008-045A,2026-06-18T21:00:57.851712,1.00271188,.00025282,0.0319,263.5052,188.9133,32.9336,0,U,33376,999,6492,0,-.145E-5,0
FM-5,2009-034A,2026-06-18T21:04:05.052864,1.00272335,.00009243,0.0177,295.7663,16.7662,184.4354,0,U,35493,999,4666,0,-.207E-5,0
INTELSAT 14 (IS-14),2009-064A,2026-06-18T19:33:09.851040,1.00271936,.00023123,0.0112,313.3595,132.8489,69.1362,0,U,36097,999,6062,0,-.28E-5,0
INTELSAT 15 (IS-15),2009-067A,2026-06-18T21:52:53.079744,1.00272232,.00021259,0.0163,339.7465,108.2856,232.4767,0,U,36106,999,4124,0,-.191E-5,0
DIRECTV 12,2009-075A,2026-06-18T15:51:24.857568,1.00272181,.00003852,0.0434,170.9001,299.0990,292.0273,0,U,36131,999,4656,0,-.11E-5,0
INTELSAT 16 (IS-16),2010-006A,2026-06-18T21:06:57.276576,1.00272338,.00019368,0.0102,330.0634,131.0131,46.5663,0,U,36397,999,5967,0,-.251E-5,0
XM-5,2010-053A,2026-06-18T20:55:35.867424,1.00271501,.00026852,0.0612,272.8135,289.3969,263.5914,0,U,37185,999,5750,0,-.29E-6,0
INTELSAT 17 (IS-17),2010-065B,2026-06-18T21:47:31.094592,1.00272163,.0002738,0.0095,122.7225,346.4889,190.7966,0,U,37238,999,5326,0,-.8E-7,0
INTELSAT 28 (IS-28),2011-016A,2026-06-18T21:19:35.704416,1.00271556,.0003625,1.8117,82.5964,6.8157,105.8883,0,U,37392,999,5330,0,-.232E-5,0
INTELSAT 18 (IS-18),2011-056A,2026-06-18T18:54:36.048672,1.00270806,.00017212,0.0379,272.9518,174.3334,283.3773,0,U,37834,999,5382,0,.46E-6,0
INTELSAT 22 (IS-22),2012-011A,2026-06-18T21:49:08.438880,1.00272407,.00015416,0.0142,38.5274,52.9148,215.0872,0,U,38098,999,720,0,-.65E-6,0
INTELSAT 19 (IS-19),2012-030A,2026-06-18T20:33:15.508800,1.00271441,.00029347,0.0186,6.0843,89.7952,285.5162,0,U,38356,999,5046,0,-.63E-6,0
INTELSAT 20 (IS-20),2012-043A,2026-06-18T20:05:25.673280,1.00271173,.0001439,0.0029,47.2647,132.1671,97.5047,0,U,38740,999,5076,0,-.31E-6,0
