INTELSAT 902 (IS-902)   
1 26900U 01039A   26169.52849991 -.00000292  00000+0  00000+0 0  9993
2 26900   6.1204  71.7676 0004307  12.4923 322.6674  1.00271543 90700
INTELSAT 904 (IS-904)   
1 27380U 02007A   26169.46096602 -.00000235  00000+0  00000+0 0  9995
2 27380   6.9241  69.1697 0006530   5.9759 326.0004  1.00270286 51772
DIRECTV 5 (TEMPO 1)     
1 27426U 02023A   26169.87306957 -.00000065  00000+0  00000+0 0  9997
2 27426   4.8830  75.2900 0003161  14.0447  21.9616  1.00271740 88148
INTELSAT 905 (IS-905)   
1 27438U 02027A   26169.79641061  .00000085  00000+0  00000+0 0  9994
2 27438   6.7585  69.7818 0003882  22.1545 324.5816  1.00272116 51371
GALAXY 3C (G-3C)        
1 27445U 02030A   26169.87610292 -.00000160  00000+0  00000+0 0  9992
2 27445   3.7373  77.9541 0001611  29.1300  20.5708  1.00271373 46516
INTELSAT 906 (IS-906)   
1 27513U 02041A   26169.20649958  .00000004  00000+0  00000+0 0  9994
2 27513   5.8051  72.9092 0004397   2.8775 329.1640  1.00275136 87038
GALAXY 13 (HORIZONS-1)  
1 27954U 03044A   26169.65134433  .00000126  00000+0  00000+0 0  9998
2 27954   1.4228  83.8471 0002227 355.5372 271.9736  1.00271682 46585
INTELSAT 10-02          
1 28358U 04022A   26169.89471269 -.00000017  00000+0  00000+0 0  9991
2 28358   0.0178 304.9806 0000189 226.3646  56.8712  1.00271761 80575
DIRECTV 8               
1 28659U 05019A   26169.87133624  .00000000  00000+0  00000+0 0  9991
2 28659   0.0191  13.0519 0002993  80.4662   8.2209  1.00269928 77092
GALAXY 28 (G-28)        
1 28702U 05022A   26169.81807736 -.00000208  00000+0  00000+0 0  9991
2 28702   3.3024  78.9149 0002851   8.2458  87.3200  1.00271033 51995
GALAXY 16 (G-16)        
1 29236U 06023A   26169.87532292 -.00000133  00000+0  00000+0 0  9991
2 29236   0.0117  97.4765 0002517 346.7012  39.0426  1.00271481 72994
DIRECTV 9S              
1 29494U 06043A   26169.87471625 -.00000120  00000+0  00000+0 0  9997
2 29494   2.4261  80.8837 0004979  13.5557  26.3672  1.00270996 51404
GALAXY 17 (G-17)        
1 31307U 07016B   26169.87809626 -.00000213  00000+0  00000+0 0  9993
2 31307   2.9774  79.8801 0004674  18.6769  39.6550  1.00271625 69823
INTELSAT 11 (IS-11)     
1 32253U 07044B   26169.82155634 -.00000210  00000+0  00000+0 0  9990
2 32253   3.5706  78.6500 0002440  88.5869 154.2628  0.99050129 68465
HORIZONS-2              
1 32388U 07063B   26169.88026294 -.00000261  00000+0  00000+0 0  9991
2 32388   2.6073  80.6045 0003864 358.3688  71.2173  1.00272982 67835
DIRECTV 11              
1 32729U 08013A   26169.65710524 -.00000132  00000+0  00000+0 0  9994
2 32729   0.0065 285.2993 0000174  94.7881  24.1838  1.00269953 45609
GALAXY 18 (G-18)        
1 32951U 08024A   26169.65663102  .00000019  00000+0  00000+0 0  9995
2 32951   0.0159  58.5793 0002786  26.7804 294.9187  1.00270297 45865
INTELSAT 25 (IS-25)     
1 33153U 08034A   26169.91744549 -.00000179  00000+0  00000+0 0  9993
2 33153   2.7154  80.3525 0003468  60.5778 210.4470  0.99034030 65707
GALAXY 19 (G-19)        
1 33376U 08045A   26169.87566958 -.00000145  00000+0  00000+0 0  9996
2 33376   0.0319 263.5052 0002528 188.9133  32.9336  1.00271188 64925
FM-5                    
1 35493U 09034A   26169.87783626 -.00000207  00000+0  00000+0 0  9999
2 35493   0.0177 295.7663 0000924  16.7662 184.4354  1.00272335 46666
INTELSAT 14 (IS-14)     
1 36097U 09064A   26169.81469735 -.00000280  00000+0  00000+0 0  9990
2 36097   0.0112 313.3595 0002312 132.8489  69.1362  1.00271936 60623
INTELSAT 15 (IS-15)     
1 36106U 09067A   26169.91172546 -.00000191  00000+0  00000+0 0  9997
2 36106   0.0163 339.7465 0002125 108.2856 232.4767  1.00272232 41246
DIRECTV 12              
1 36131U 09075A   26169.66070437 -.00000110  00000+0  00000+0 0  9993
2 36131   0.0434 170.9001 0000385 299.0990 292.0273  1.00272181 46567
INTELSAT 16 (IS-16)     
1 36397U 10006A   26169.87982959 -.00000251  00000+0  00000+0 0  9993
2 36397   0.0102 330.0634 0001936 131.0131  46.5663  1.00272338 59674
XM-5                    
1 37185U 10053A   26169.87194291 -.00000029  00000+0  00000+0 0  9998
2 37185   0.0612 272.8135 0002685 289.3969 263.5914  1.00271501 57504
INTELSAT 17 (IS-17)     
1 37238U 10065B   26169.90799878 -.00000008  00000+0  00000+0 0  9993
2 37238   0.0095 122.7225 0002738 346.4889 190.7966  1.00272163 53268
INTELSAT 28 (IS-28)     
1 37392U 11016A   26169.88860769 -.00000232  00000+0  00000+0 0  9995
2 37392   1.8117  82.5964 0003625   6.8157 105.8883  1.00271556 53302
INTELSAT 18 (IS-18)     
1 37834U 11056A   26169.78791723  .00000046  00000+0  00000+0 0  9994
2 37834   0.0379 272.9518 0001721 174.3334 283.3773  1.00270806 53821
INTELSAT 22 (IS-22)     
1 38098U 12011A   26169.90912545 -.00000065  00000+0  00000+0 0  9992
2 38098   0.0142  38.5274 0001541  52.9148 215.0872  1.00272407  7203
INTELSAT 19 (IS-19)     
1 38356U 12030A   26169.85642950 -.00000063  00000+0  00000+0 0  9992
2 38356   0.0186   6.0843 0002934  89.7952 285.5162  1.00271441 50465
INTELSAT 20 (IS-20)     
1 38740U 12043A   26169.83710270 -.00000031  00000+0  00000+0 0  9997
2 38740   0.0029  47.2647 0001439 132.1671  97.5047  1.00271173 50765
